IRIDIUM 155             
1 43573U 18061E   23294.46822402  .00000210  00000+0  68059-4 0  9990
2 43573  86.3914 101.9819 0001894  85.9182 274.2230 14.34218391274367
IRIDIUM 154             
1 43574U 18061F   23294.37943621  .00000594  00000+0  20467-3 0  9993
2 43574  86.3840 102.1094 0007481  49.4163 310.7683 14.34251207274402
IRIDIUM 163             
1 43575U 18061G   23294.49993666  .00000192  00000+0  61472-4 0  9997
2 43575  86.3915 102.0004 0002202  90.6446 269.5002 14.34217743274395
IRIDIUM 156             
1 43576U 18061H   23294.47456778  .00000233  00000+0  76219-4 0  9995
2 43576  86.3914 102.0169 0001959  95.3255 264.8165 14.34216616274380
IRIDIUM 164             
1 43577U 18061J   23294.52530614  .00000032  00000+0  43835-5 0  9990
2 43577  86.3915 102.0206 0002161  96.6885 263.4556 14.34217273274438
IRIDIUM 159             
1 43578U 18061K   23294.49359032  .00000181  00000+0  57676-4 0  9992
2 43578  86.3914 101.9916 0002112  87.2747 272.8690 14.34216941274392
IRIDIUM 180             
1 43922U 19002A   23294.56285671  .00000497  00000+0  17057-3 0  9994
2 43922  86.4008  38.8108 0002359  95.5663 264.5801 14.34217633250017
IRIDIUM 176             
1 43923U 19002B   23294.32767376  .00002383  00000+0  37389-3 0  9992
2 43923  86.6121  38.9406 0003108 105.8854 254.2706 14.72262176256557
IRIDIUM 168             
1 43924U 19002C   23294.55651603  .00000503  00000+0  17253-3 0  9993
2 43924  86.4009  38.8633 0002319  93.0734 267.0727 14.34217772249995
IRIDIUM 173             
1 43925U 19002D   23294.54383179  .00000533  00000+0  18331-3 0  9994
2 43925  86.4005  38.7973 0002250  92.0572 268.0882 14.34217297249985
IRIDIUM 169             
1 43926U 19002E   23294.43609712  .00000793  00000+0  25278-3 0  9993
2 43926  86.4207  70.4582 0001603 335.7595  24.3527 14.38611785250808
IRIDIUM 172             
1 43927U 19002F   23294.53748617  .00000598  00000+0  20639-3 0  9992
2 43927  86.4005  38.8049 0002219  92.8487 267.2963 14.34218024249980
IRIDIUM 175             
1 43928U 19002G   23294.32155359  .00002380  00000+0  37333-3 0  9995
2 43928  86.1552  25.6535 0003921 113.4500 246.7129 14.72253451256547
IRIDIUM 171             
1 43929U 19002H   23294.58822226  .00000528  00000+0  18129-3 0  9992
2 43929  86.4015  38.9824 0002301  96.3201 263.8257 14.34220813249987
IRIDIUM 170             
1 43930U 19002J   23294.53775366  .00002040  00000+0  31944-3 0  9992
2 43930  86.6125  38.8583 0002660  98.7769 261.3749 14.72262765256595
IRIDIUM 167             
1 43931U 19002K   23294.58188569  .00000686  00000+0  23795-3 0  9990
2 43931  86.4007  38.8002 0002121  97.7692 262.3745 14.34219154249989
IRIDIUM 181             
1 56726U 23068S   23294.47975087  .00000748  00000+0  21520-3 0  9993
2 56726  86.8591  80.9591 0002232 126.0745 234.0664 14.43596530 22550
IRIDIUM 177             
1 56727U 23068T   23294.44216461  .00003539  00000+0  46255-3 0  9998
2 56727  86.1962  69.1667 0002342  92.1928 267.9561 14.80200432 22912
IRIDIUM 174             
1 56728U 23068U   23294.43673233  .00003896  00000+0  50951-3 0  9996
2 56728  86.1971  69.2540 0002211  79.6022 280.5448 14.80200715 22913
IRIDIUM 178             
1 56729U 23068V   23294.43125868  .00003482  00000+0  45507-3 0  9995
2 56729  86.5755  75.3601 0002443  85.3211 274.8290 14.80201612 22913
IRIDIUM 179             
1 56730U 23068W   23294.42587019  .00003134  00000+0  40938-3 0  9993
2 56730  86.6783  76.4805 0001960  79.9226 280.2217 14.80197616 22911
